{"type": "FeatureCollection", "features": [ {"type": "Feature", "properties": {"norad_id": 34833, "name": "IRIDIUM 33 DEB", "group": "iridium-33-debris", "lat": 76.48636517711412, "lon": 62.81882854079135, "alt_km": 695.362078409833, "timestamp": "2025-12-20T14:38:02.354563+00:00", "meta": {"OBJECT_NAME": "IRIDIUM 33 DEB", "OBJECT_ID": "1997-051MH", "EPOCH": "2025-12-19T09:05:01.669920", "MEAN_MOTION": 14.52414234, "ECCENTRICITY": 0.0021541, "INCLINATION": 86.3931, "RA_OF_ASC_NODE": 48.1333, "ARG_OF_PERICENTER": 78.2401, "MEAN_ANOMALY": 44.9997, "EPHEMERIS_TYPE": 0, "CLASSIFICATION_TYPE": "U", "NORAD_CAT_ID": 34833, "ELEMENT_SET_NO": 999, "REV_AT_EPOCH": 87811, "BSTAR": 0.00049084, "MEAN_MOTION_DOT": 2.026e-05, "MEAN_MOTION_DDOT": 0}, "tle": {"line1": "1 34833U 97051MH  25353.37849155  .00002026  00000+0  49084-3 0  9990", "line2": "2 34833  86.3931  48.1333 0021541  78.2401  44.9997 14.52414234878117"}}, "geometry": {"type": "Point", "coordinates": [62.81882854079135, 76.48636517711412]}}, {"type": "Feature", "properties": {"norad_id": 34870, "name": "IRIDIUM 33 DEB", "group": "iridium-33-debris", "lat": 10.769005038373995, "lon": -48.81756984646616, "alt_km": 651.3322253842243, "timestamp": "2025-12-20T14:38:02.354573+00:00", "meta": {"OBJECT_NAME": "IRIDIUM 33 DEB", "OBJECT_ID": "1997-051MQ", "EPOCH": "2025-12-17T15:48:12.189024", "MEAN_MOTION": 14.76525212, "ECCENTRICITY": 0.00169592, "INCLINATION": 86.3102, "RA_OF_ASC_NODE": 311.8309, "ARG_OF_PERICENTER": 164.6796, "MEAN_ANOMALY": 8.9227, "EPHEMERIS_TYPE": 0, "CLASSIFICATION_TYPE": "U", "NORAD_CAT_ID": 34870, "ELEMENT_SET_NO": 999, "REV_AT_EPOCH": 88983, "BSTAR": 0.0011120343, "MEAN_MOTION_DOT": 7.793e-05, "MEAN_MOTION_DDOT": 0}, "tle": {"line1": "1 34870U 97051MQ  25351.65847441  .00007793  00000+0  11120-2 0  9991", "line2": "2 34870  86.3102 311.8309 0016959 164.6796   8.9227 14.76525212889837"}}, "geometry": {"type": "Point", "coordinates": [-48.81756984646616, 10.769005038373995]}}, {"type": "Feature", "properties": {"norad_id": 34896, "name": "IRIDIUM 33 DEB", "group": "iridium-33-debris", "lat": -75.45382165850113, "lon": -51.17165997813864, "alt_km": 682.4808623777326, "timestamp": "2025-12-20T14:38:02.354583+00:00", "meta": {"OBJECT_NAME": "IRIDIUM 33 DEB", "OBJECT_ID": "1997-051MY", "EPOCH": "2025-12-17T17:20:43.717344", "MEAN_MOTION": 14.6632638, "ECCENTRICITY": 0.00248916, "INCLINATION": 86.3286, "RA_OF_ASC_NODE": 324.4498, "ARG_OF_PERICENTER": 196.3048, "MEAN_ANOMALY": 337.3904, "EPHEMERIS_TYPE": 0, "CLASSIFICATION_TYPE": "U", "NORAD_CAT_ID": 34896, "ELEMENT_SET_NO": 999, "REV_AT_EPOCH": 87692, "BSTAR": 0.00069874419, "MEAN_MOTION_DOT": 3.895e-05, "MEAN_MOTION_DDOT": 0}, "tle": {"line1": "1 34896U 97051MY  25351.72272821  .00003895  00000+0  69874-3 0  9990", "line2": "2 34896  86.3286 324.4498 0024891 196.3048 337.3904 14.66326380876924"}}, "geometry": {"type": "Point", "coordinates": [-51.17165997813864, -75.45382165850113]}}, {"type": "Feature", "properties": {"norad_id": 34926, "name": "IRIDIUM 33 DEB", "group": "iridium-33-debris", "lat": 39.33600297290689, "lon": 7.802393150131692, "alt_km": 743.763836826779, "timestamp": "2025-12-20T14:38:02.354594+00:00", "meta": {"OBJECT_NAME": "IRIDIUM 33 DEB", "OBJECT_ID": "1997-051NF", "EPOCH": "2025-12-20T01:29:58.203744", "MEAN_MOTION": 14.54723166, "ECCENTRICITY": 0.00745564, "INCLINATION": 86.1315, "RA_OF_ASC_NODE": 4.8773, "ARG_OF_PERICENTER": 267.4346, "MEAN_ANOMALY": 147.2463, "EPHEMERIS_TYPE": 0, "CLASSIFICATION_TYPE": "U", "NORAD_CAT_ID": 34926, "ELEMENT_SET_NO": 999, "REV_AT_EPOCH": 86563, "BSTAR": 0.0033633995, "MEAN_MOTION_DOT": 0.00014979, "MEAN_MOTION_DDOT": 0}, "tle": {"line1": "1 34926U 97051NF  25354.06247921  .00014979  00000+0  33634-2 0  9996", "line2": "2 34926  86.1315   4.8773 0074556 267.4346 147.2463 14.54723166865632"}}, "geometry": {"type": "Point", "coordinates": [7.802393150131692, 39.33600297290689]}}, {"type": "Feature", "properties": {"norad_id": 34985, "name": "IRIDIUM 33 DEB", "group": "iridium-33-debris", "lat": 11.747206032617996, "lon": -127.23349316432888, "alt_km": 739.4398398794046, "timestamp": "2025-12-20T14:38:02.354604+00:00", "meta": {"OBJECT_NAME": "IRIDIUM 33 DEB", "OBJECT_ID": "1997-051NR", "EPOCH": "2025-12-18T03:42:15.992064", "MEAN_MOTION": 14.42032375, "ECCENTRICITY": 0.00213063, "INCLINATION": 86.3697, "RA_OF_ASC_NODE": 54.5701, "ARG_OF_PERICENTER": 201.5738, "MEAN_ANOMALY": 187.9746, "EPHEMERIS_TYPE": 0, "CLASSIFICATION_TYPE": "U", "NORAD_CAT_ID": 34985, "ELEMENT_SET_NO": 999, "REV_AT_EPOCH": 87253, "BSTAR": 0.00049263148, "MEAN_MOTION_DOT": 1.64e-05, "MEAN_MOTION_DDOT": 0}, "tle": {"line1": "1 34985U 97051NR  25352.15435176  .00001640  00000+0  49263-3 0  9997", "line2": "2 34985  86.3697  54.5701 0021306 201.5738 187.9746 14.42032375872538"}}, "geometry": {"type": "Point", "coordinates": [-127.23349316432888, 11.747206032617996]}}, {"type": "Feature", "properties": {"norad_id": 35051, "name": "IRIDIUM 33 DEB", "group": "iridium-33-debris", "lat": -78.48264809109239, "lon": -156.1761671769275, "alt_km": 748.1676921410626, "timestamp": "2025-12-20T14:38:02.354614+00:00", "meta": {"OBJECT_NAME": "IRIDIUM 33 DEB", "OBJECT_ID": "1997-051NX", "EPOCH": "2025-12-19T07:34:48.667584", "MEAN_MOTION": 14.47625509, "ECCENTRICITY": 0.0010483, "INCLINATION": 86.3238, "RA_OF_ASC_NODE": 5.9957, "ARG_OF_PERICENTER": 72.9006, "MEAN_ANOMALY": 287.3345, "EPHEMERIS_TYPE": 0, "CLASSIFICATION_TYPE": "U", "NORAD_CAT_ID": 35051, "ELEMENT_SET_NO": 999, "REV_AT_EPOCH": 87091, "BSTAR": 0.00045048, "MEAN_MOTION_DOT": 1.68e-05, "MEAN_MOTION_DDOT": 0}, "tle": {"line1": "1 35051U 97051NX  25353.31584106  .00001680  00000+0  45048-3 0  9990", "line2": "2 35051  86.3238   5.9957 0010483  72.9006 287.3345 14.47625509870911"}}, "geometry": {"type": "Point", "coordinates": [-156.1761671769275, -78.48264809109239]}}, {"type": "Feature", "properties": {"norad_id": 35052, "name": "IRIDIUM 33 DEB", "group": "iridium-33-debris", "lat": 29.41663124893154, "lon": -164.9721796732931, "alt_km": 761.6738523634667, "timestamp": "2025-12-20T14:38:02.354625+00:00", "meta": {"OBJECT_NAME": "IRIDIUM 33 DEB", "OBJECT_ID": "1997-051NY", "EPOCH": "2025-12-20T00:34:57.537984", "MEAN_MOTION": 14.38499976, "ECCENTRICITY": 0.00134185, "INCLINATION": 86.3301, "RA_OF_ASC_NODE": 17.3527, "ARG_OF_PERICENTER": 64.7897, "MEAN_ANOMALY": 295.4691, "EPHEMERIS_TYPE": 0, "CLASSIFICATION_TYPE": "U", "NORAD_CAT_ID": 35052, "ELEMENT_SET_NO": 999, "REV_AT_EPOCH": 87380, "BSTAR": 0.00013114955, "MEAN_MOTION_DOT": 4.21e-06, "MEAN_MOTION_DDOT": 0}, "tle": {"line1": "1 35052U 97051NY  25354.02427706  .00000421  00000+0  13115-3 0  9994", "line2": "2 35052  86.3301  17.3527 0013418  64.7897 295.4691 14.38499976873803"}}, "geometry": {"type": "Point", "coordinates": [-164.9721796732931, 29.41663124893154]}}, {"type": "Feature", "properties": {"norad_id": 35080, "name": "IRIDIUM 33 DEB", "group": "iridium-33-debris", "lat": -64.5212436258095, "lon": -123.38525100525678, "alt_km": 616.343347688522, "timestamp": "2025-12-20T14:38:02.354635+00:00", "meta": {"OBJECT_NAME": "IRIDIUM 33 DEB", "OBJECT_ID": "1997-051PF", "EPOCH": "2025-12-19T21:23:19.112352", "MEAN_MOTION": 14.86825728, "ECCENTRICITY": 0.0059091, "INCLINATION": 86.2077, "RA_OF_ASC_NODE": 48.9572, "ARG_OF_PERICENTER": 155.0881, "MEAN_ANOMALY": 205.3218, "EPHEMERIS_TYPE": 0, "CLASSIFICATION_TYPE": "U", "NORAD_CAT_ID": 35080, "ELEMENT_SET_NO": 999, "REV_AT_EPOCH": 69794, "BSTAR": 0.0037964, "MEAN_MOTION_DOT": 0.00035094, "MEAN_MOTION_DDOT": 0}, "tle": {"line1": "1 35080U 97051PF  25353.89119343  .00035094  00000+0  37964-2 0  9995", "line2": "2 35080  86.2077  48.9572 0059091 155.0881 205.3218 14.86825728697942"}}, "geometry": {"type": "Point", "coordinates": [-123.38525100525678, -64.5212436258095]}}, {"type": "Feature", "properties": {"norad_id": 35297, "name": "IRIDIUM 33 DEB", "group": "iridium-33-debris", "lat": -66.05781883122661, "lon": -112.41622021090708, "alt_km": 756.9509465795354, "timestamp": "2025-12-20T14:38:02.354645+00:00", "meta": {"OBJECT_NAME": "IRIDIUM 33 DEB", "OBJECT_ID": "1997-051PM", "EPOCH": "2025-12-16T11:27:21.167712", "MEAN_MOTION": 14.45174956, "ECCENTRICITY": 0.00178431, "INCLINATION": 86.3863, "RA_OF_ASC_NODE": 61.1645, "ARG_OF_PERICENTER": 129.6186, "MEAN_ANOMALY": 230.6595, "EPHEMERIS_TYPE": 0, "CLASSIFICATION_TYPE": "U", "NORAD_CAT_ID": 35297, "ELEMENT_SET_NO": 999, "REV_AT_EPOCH": 70480, "BSTAR": 0.00045011402, "MEAN_MOTION_DOT": 1.598e-05, "MEAN_MOTION_DDOT": 0}, "tle": {"line1": "1 35297U 97051PM  25350.47732833  .00001598  00000+0  45011-3 0  9996", "line2": "2 35297  86.3863  61.1645 0017843 129.6186 230.6595 14.45174956704806"}}, "geometry": {"type": "Point", "coordinates": [-112.41622021090708, -66.05781883122661]}}, {"type": "Feature", "properties": {"norad_id": 35299, "name": "IRIDIUM 33 DEB", "group": "iridium-33-debris", "lat": 57.00777783000527, "lon": 35.49952963395754, "alt_km": 710.6201300551156, "timestamp": "2025-12-20T14:38:02.354655+00:00", "meta": {"OBJECT_NAME": "IRIDIUM 33 DEB", "OBJECT_ID": "1997-051PP", "EPOCH": "2025-12-18T02:30:13.094208", "MEAN_MOTION": 14.40886995, "ECCENTRICITY": 0.00588566, "INCLINATION": 86.2881, "RA_OF_ASC_NODE": 30.8512, "ARG_OF_PERICENTER": 85.3219, "MEAN_ANOMALY": 304.2144, "EPHEMERIS_TYPE": 0, "CLASSIFICATION_TYPE": "U", "NORAD_CAT_ID": 35299, "ELEMENT_SET_NO": 999, "REV_AT_EPOCH": 86408, "BSTAR": 0.00059608635, "MEAN_MOTION_DOT": 1.971e-05, "MEAN_MOTION_DDOT": 0}, "tle": {"line1": "1 35299U 97051PP  25352.10431822  .00001971  00000+0  59609-3 0  9997", "line2": "2 35299  86.2881  30.8512 0058856  85.3219 304.2144 14.40886995864080"}}, "geometry": {"type": "Point", "coordinates": [35.49952963395754, 57.00777783000527]}}]}